[
    {
        "CCSDS_OMM_VERS": "3.0",
        "COMMENT": "GENERATED VIA SPACE-TRACK.ORG API",
        "CREATION_DATE": "2025-03-01T17:52:32",
        "ORIGINATOR": "18 SPCS",
        "OBJECT_NAME": "GALILEO 30 (10E)",
        "OBJECT_ID": "2024-079C",
        "CENTER_NAME": "EARTH",
        "REF_FRAME": "TEME",
        "TIME_SYSTEM": "UTC",
        "MEAN_ELEMENT_THEORY": "SGP4",
        "EPOCH": "2025-03-01T05:14:13.502112",
        "MEAN_MOTION": "1.70474840",
        "ECCENTRICITY": "0.00005190",
        "INCLINATION": "54.8275",
        "RA_OF_ASC_NODE": "114.3117",
        "ARG_OF_PERICENTER": "181.4581",
        "MEAN_ANOMALY": "178.6349",
        "EPHEMERIS_TYPE": "0",
        "CLASSIFICATION_TYPE": "U",
        "NORAD_CAT_ID": "59600",
        "ELEMENT_SET_NO": "999",
        "REV_AT_EPOCH": "530",
        "BSTAR": "0.00000000000000",
        "MEAN_MOTION_DOT": "0.00000028",
        "MEAN_MOTION_DDOT": "0.0000000000000",
        "SEMIMAJOR_AXIS": "29600.223",
        "PERIOD": "844.699",
        "APOAPSIS": "23223.624",
        "PERIAPSIS": "23220.552",
        "OBJECT_TYPE": "PAYLOAD",
        "RCS_SIZE": "LARGE",
        "COUNTRY_CODE": "ESA",
        "LAUNCH_DATE": "2024-04-28",
        "SITE": "AFETR",
        "DECAY_DATE": null,
        "FILE": "4656182",
        "GP_ID": "282014159",
        "TLE_LINE0": "0 GALILEO 30 (10E)",
        "TLE_LINE1": "1 59600U 24079C   25060.21821183  .00000028  00000-0  00000-0 0  9991",
        "TLE_LINE2": "2 59600  54.8275 114.3117 0000519 181.4581 178.6349  1.70474840  5305"
    }
]